{
  "norad_id": 53708,
  "name": "STARLINK-4694",
  "history": [
    {
      "epoch": "2026-04-15T04:04:22.970784Z",
      "apogee_km": 540.6509759278379,
      "perigee_km": 538.861593650794,
      "latitude_deg": 4.238552289547415e-05,
      "longitude_deg": 160.7875890142511,
      "height_km": 540.557889434647,
      "semi_major_axis_km": 6917.893284789316,
      "eccentricity": 0.00012933,
      "inclination_deg": 53.2166,
      "raan_deg": 65.2189,
      "arg_perigee_deg": 83.9619,
      "mean_anomaly_deg": 276.1521,
      "mean_motion_rev_day": 15.08835781
    },
    {
      "epoch": "2026-04-16T03:55:09.902784Z",
      "apogee_km": 540.635166792249,
      "perigee_km": 538.8702747666848,
      "latitude_deg": 2.0824972008286975e-05,
      "longitude_deg": 157.65238933713002,
      "height_km": 540.5213609060874,
      "semi_major_axis_km": 6917.889720779467,
      "eccentricity": 0.00012756,
      "inclination_deg": 53.2172,
      "raan_deg": 60.7586,
      "arg_perigee_deg": 81.7137,
      "mean_anomaly_deg": 278.4,
      "mean_motion_rev_day": 15.08836947
    },
    {
      "epoch": "2026-04-17T13:18:16.114752Z",
      "apogee_km": 540.6301635969667,
      "perigee_km": 538.8840871197262,
      "latitude_deg": -5.8161814262116054e-05,
      "longitude_deg": 9.261373983469968,
      "height_km": 540.5087333481267,
      "semi_major_axis_km": 6917.894125358346,
      "eccentricity": 0.0001262,
      "inclination_deg": 53.2177,
      "raan_deg": 54.5146,
      "arg_perigee_deg": 80.4863,
      "mean_anomaly_deg": 279.6271,
      "mean_motion_rev_day": 15.08835506
    },
    {
      "epoch": "2026-04-18T13:09:03.178080Z",
      "apogee_km": 540.728691508124,
      "perigee_km": 538.7667793971505,
      "latitude_deg": 6.927079279743381e-05,
      "longitude_deg": 6.125834926860469,
      "height_km": 540.568798588313,
      "semi_major_axis_km": 6917.884735452637,
      "eccentricity": 0.0001418,
      "inclination_deg": 53.2181,
      "raan_deg": 50.0544,
      "arg_perigee_deg": 85.6366,
      "mean_anomaly_deg": 274.4789,
      "mean_motion_rev_day": 15.08838578
    },
    {
      "epoch": "2026-04-19T12:59:50.411616Z",
      "apogee_km": 540.7049018520493,
      "perigee_km": 538.8038652998421,
      "latitude_deg": 2.4386459540138493e-05,
      "longitude_deg": 2.9880554138255175,
      "height_km": 540.5506854762567,
      "semi_major_axis_km": 6917.891383575945,
      "eccentricity": 0.0001374,
      "inclination_deg": 53.2181,
      "raan_deg": 45.5928,
      "arg_perigee_deg": 83.9933,
      "mean_anomaly_deg": 276.1216,
      "mean_motion_rev_day": 15.08836403
    },
    {
      "epoch": "2026-04-20T12:50:37.939776Z",
      "apogee_km": 540.7312568461157,
      "perigee_km": 538.7921698367654,
      "latitude_deg": -5.8736290706352296e-06,
      "longitude_deg": -0.14894526214517648,
      "height_km": 540.5702754632492,
      "semi_major_axis_km": 6917.89871334144,
      "eccentricity": 0.00014015,
      "inclination_deg": 53.2188,
      "raan_deg": 41.1332,
      "arg_perigee_deg": 84.8373,
      "mean_anomaly_deg": 275.2779,
      "mean_motion_rev_day": 15.08834005
    },
    {
      "epoch": "2026-04-21T12:41:24.414720Z",
      "apogee_km": 540.725758560141,
      "perigee_km": 538.7412982203668,
      "latitude_deg": 3.3125815226762824e-05,
      "longitude_deg": -3.2815946821444704,
      "height_km": 540.4794220127434,
      "semi_major_axis_km": 6917.870528390254,
      "eccentricity": 0.00014343,
      "inclination_deg": 53.2192,
      "raan_deg": 36.6735,
      "arg_perigee_deg": 81.3095,
      "mean_anomaly_deg": 278.806,
      "mean_motion_rev_day": 15.08843226
    },
    {
      "epoch": "2026-04-22T01:24:29.282400Z",
      "apogee_km": 541.0111467369934,
      "perigee_km": 538.4505671284287,
      "latitude_deg": 5.1430640969420675e-05,
      "longitude_deg": 163.0454250768026,
      "height_km": 540.5116759348601,
      "semi_major_axis_km": 6917.867856932711,
      "eccentricity": 0.00018507,
      "inclination_deg": 53.22,
      "raan_deg": 34.2931,
      "arg_perigee_deg": 84.8702,
      "mean_anomaly_deg": 275.2502,
      "mean_motion_rev_day": 15.088441
    },
    {
      "epoch": "2026-04-23T04:26:03.369408Z",
      "apogee_km": 540.7310223184777,
      "perigee_km": 538.7670344750168,
      "latitude_deg": -2.4625927149194308e-05,
      "longitude_deg": 111.48841277998424,
      "height_km": 540.5684132990467,
      "semi_major_axis_km": 6917.886028396747,
      "eccentricity": 0.00014195,
      "inclination_deg": 53.2194,
      "raan_deg": 29.2381,
      "arg_perigee_deg": 85.5342,
      "mean_anomaly_deg": 274.5812,
      "mean_motion_rev_day": 15.08838155
    },
    {
      "epoch": "2026-04-24T16:59:55.639968Z",
      "apogee_km": 540.8001065008184,
      "perigee_km": 538.7261200468593,
      "latitude_deg": 8.576170121990712e-06,
      "longitude_deg": -85.31901008345932,
      "height_km": 540.6418765666873,
      "semi_major_axis_km": 6917.9001132738385,
      "eccentricity": 0.0001499,
      "inclination_deg": 53.2189,
      "raan_deg": 22.4001,
      "arg_perigee_deg": 89.0659,
      "mean_anomaly_deg": 271.0505,
      "mean_motion_rev_day": 15.08833547
    },
    {
      "epoch": "2026-04-25T10:29:08.395872Z",
      "apogee_km": 540.424348644261,
      "perigee_km": 538.9646861940846,
      "latitude_deg": -2.1557457552444365e-05,
      "longitude_deg": 8.388957119237276,
      "height_km": 540.6744733882837,
      "semi_major_axis_km": 6917.831517419172,
      "eccentricity": 0.0001055,
      "inclination_deg": 53.2183,
      "raan_deg": 19.1294,
      "arg_perigee_deg": 96.587,
      "mean_anomaly_deg": 263.5242,
      "mean_motion_rev_day": 15.08855989
    },
    {
      "epoch": "2026-04-26T23:03:02.665728Z",
      "apogee_km": 540.5673103486588,
      "perigee_km": 538.955578369093,
      "latitude_deg": 3.126190509083408e-05,
      "longitude_deg": 171.5712982227487,
      "height_km": 540.6495604176698,
      "semi_major_axis_km": 6917.898444358876,
      "eccentricity": 0.00011649,
      "inclination_deg": 53.2177,
      "raan_deg": 12.2895,
      "arg_perigee_deg": 89.4395,
      "mean_anomaly_deg": 270.6731,
      "mean_motion_rev_day": 15.08834093
    }
  ]
}